TRANSIT 16 [?]          
1 02807U 67048A   22288.81781949  .00000139  00000+0  20061-3 0  9995
2 02807  89.6633  32.3247 0019645 207.6165 271.5345 13.50331745727013
TRANSIT 17 [?]          
1 02965U 67092A   22288.59637725  .00000129  00000+0  17526-3 0  9997
2 02965  89.2300 114.1634 0047396 349.1005  75.9148 13.53043128714889
TRANSIT 18 [?]          
1 03133U 68012A   22288.52741649  .00000149  00000+0  21306-3 0  9995
2 03133  90.0024 271.6377 0072949 273.7631 201.5411 13.51169521689810
NNSS 19 [?]             
1 04507U 70067A   22289.15029207  .00000225  00000+0  30332-3 0  9997
2 04507  89.9289 238.4123 0173929  35.1503 326.0977 13.50848673566842
NNSS O-20 [?]           
1 06909U 73081A   22288.49341850  .00000236  00000+0  23484-3 0  9993
2 06909  89.8143 275.1607 0154543 297.8782  60.6799 13.70706975645458
TRANSAT [?]             
1 10457U 77106A   22288.56702847  .00000080  00000+0  11173-3 0  9992
2 10457  89.6719 118.6445 0023286 282.0002 137.3113 13.48691478211850
NOVA I [?]              
1 12458U 81044A   22289.44910922  .00000100  00000+0  21547-3 0  9993
2 12458  89.8790 106.3420 0015782  48.9488 339.6336 13.23076726999628
NOVA 3 [?]              
1 15362U 84110A   22289.15327921  .00000106  00000+0  23202-3 0  9992
2 15362  90.1006  68.1010 0030124 269.4664 264.6512 13.22843386834739
OSCAR 30 [?]            
1 15935U 85066A   22288.78547574  .00000120  00000+0  19777-3 0  9993
2 15935  90.1761  79.9878 0170616  98.9816   9.7394 13.35769755810461
OSCAR 24 [?]            
1 15936U 85066B   22289.18580425  .00000090  00000+0  14362-3 0  9992
2 15936  90.1740  71.9262 0171094 103.5894  66.6913 13.35629712812658
POLAR BEAR [?]          
1 17070U 86088A   22289.32650208  .00000151  00000+0  14623-3 0  9999
2 17070  89.5712 232.0784 0039391   2.2825 151.7095 13.74885383801556
OSCAR 27 [?]            
1 18361U 87080A   22288.84861865  .00000137  00000+0  21629-3 0  9993
2 18361  90.3397  38.2298 0102505 289.0184  69.9881 13.44578276720747
OSCAR 29 [?]            
1 18362U 87080B   22288.79556779  .00000113  00000+0  17727-3 0  9991
2 18362  90.3409  38.5669 0104430 310.0755 168.7806 13.44166571720066
OSCAR 23 [?]            
1 19070U 88033A   22288.70402304  .00000065  00000+0  11121-3 0  9990
2 19070  90.3304 340.6351 0191087 148.9318 326.3595 13.27533926669409
OSCAR 32 [?]            
1 19071U 88033B   22288.91869360  .00000053  00000+0  87820-4 0  9990
2 19071  90.3305 340.7298 0189731 136.2717  35.7169 13.27713641669534
NOVA 11 [?]             
1 19223U 88052A   22289.50145682  .00000056  00000+0  11369-3 0  9997
2 19223  89.9728  80.5516 0029304 314.2009 111.1640 13.22753688657281
OSCAR 25 [?]            
1 19419U 88074A   22288.82014369  .00000117  00000+0  18820-3 0  9996
2 19419  90.0126  17.9648 0094497 298.1448 176.9466 13.42307647671581
OSCAR 31 [?]            
1 19420U 88074B   22288.75848215  .00000099  00000+0  15710-3 0  9999
2 19420  90.0137  18.1534 0092625 292.3752 181.0822 13.42317658671684
